ASTRA 2G                
1 40364U 14089A   26199.27145443  .00000142  00000+0  00000+0 0  9991
2 40364   0.0565  34.4014 0004534  42.0007 345.5685  1.00270054 42270
FENGYUN 2G              
1 40367U 14090A   26199.03636350 -.00000313  00000+0  00000+0 0  9993
2 40367   5.7151  72.4430 0004100 174.1789 161.7141  1.00279664 42308
MUOS-3                  
1 40374U 15002A   26199.22127958 -.00000138  00000+0  00000+0 0  9990
2 40374   4.5787  43.6351 0053778 177.0104 139.5233  1.00273405 41893
INMARSAT 5-F2           
1 40384U 15005A   26199.25498767 -.00000293  00000+0  00000+0 0  9998
2 40384   0.0199  53.0817 0000802  63.3717 216.4019  1.00274943 41302
ABS-3A                  
1 40424U 15010A   26198.99461351 -.00000035  00000+0  00000+0 0  9992
2 40424   0.0113  47.8692 0001598  36.0967 206.9326  1.00272866 41680
EUTELSAT 115 WEST B     
1 40425U 15010B   26199.21572319 -.00000033  00000+0  00000+0 0  9994
2 40425   0.0037 119.7521 0000283 347.3212 151.7004  1.00272514 41698
EXPRESS-AM7             
1 40505U 15012A   26199.27379444  .00000143  00000+0  00000+0 0  9996
2 40505   0.0143  73.6481 0002859  49.4224 311.5450  1.00272163 41312
BEIDOU-3S IGSO-1S       
1 40549U 15019A   26183.80025122 -.00000190  00000+0  00000+0 0  9997
2 40549  49.1798 295.2769 0076860 219.1125 144.2493  1.00680073 41232
THOR 7                  
1 40613U 15022A   26199.26582106 -.00000016  00000+0  00000+0 0  9997
2 40613   0.0427 248.5313 0002345 228.6036 273.9909  1.00274056 41128
TURKMENALEM52E/MONACOSAT
1 40617U 15023A   26199.20495488  .00000096  00000+0  00000+0 0  9999
2 40617   0.0390  86.1652 0002747  37.3215 298.3095  1.00272699 41154
DIRECTV 15              
1 40663U 15026A   26199.23439287 -.00000111  00000+0  00000+0 0  9990
2 40663   0.0233  79.8482 0000174 339.5184 218.1648  1.00272070 40779
SKY MEXICO-1            
1 40664U 15026B   26199.25030765 -.00000242  00000+0  00000+0 0  9996
2 40664   0.0154  70.9192 0002372  61.8295 174.6169  1.00272863 40765
METEOSAT-11 (MSG-4)     
1 40732U 15034A   26199.26772774  .00000053  00000+0  00000+0 0  9994
2 40732   3.2763  70.9096 0002092 354.8615 335.9412  1.00272819  7526
STAR ONE C4             
1 40733U 15034B   26198.96692450 -.00000274  00000+0  00000+0 0  9999
2 40733   0.0275 337.7600 0001633 102.1763 133.9103  1.00273418 40327
WGS F7 (USA 263)        
1 40746U 15036A   26198.80157433  .00000009  00000+0  00000+0 0  9990
2 40746   0.0152  48.5137 0000219 118.8406 231.8241  1.00272892 40173
INTELSAT 34 (IS-34)     
1 40874U 15039A   26199.18363477 -.00000294  00000+0  00000+0 0  9991
2 40874   0.0104  22.8671 0000444 356.7138 287.0201  1.00273425 39940
EUTELSAT 8 WEST B       
1 40875U 15039B   26199.26434773 -.00000074  00000+0  00000+0 0  9995
2 40875   0.0632 354.8967 0003812 117.0079 271.3325  1.00271362 39960
GSAT-6                  
1 40880U 15041A   26198.99708464 -.00000170  00000+0  00000+0 0  9991
2 40880   1.9958  82.2052 0002968  31.5815 263.4827  1.00272792 39904
INMARSAT 5-F3           
1 40882U 15042A   26198.80244101  .00000041  00000+0  00000+0 0  9993
2 40882   0.0188  48.3245 0000482 115.9868 239.7662  1.00273047 39875
MUOS-4                  
1 40887U 15044A   26199.12544895 -.00000102  00000+0  00000+0 0  9998
2 40887   4.3871  42.4129 0056510   3.5983  10.0614  1.00271611 39877
TJS-1                   
1 40892U 15046A   26199.22532163 -.00000164  00000+0  00000+0 0  9990
2 40892   0.4016  84.7589 0005142  20.1916  67.2200  1.00271383 39888
EXPRESS-AM8             
1 40895U 15048A   26199.26313439 -.00000120  00000+0  00000+0 0  9994
2 40895   0.0161 358.9118 0000185  30.0131 347.8592  1.00271575 39652
BEIDOU-3S IGSO-2S       
1 40938U 15053A   26198.64267037 -.00000104  00000+0  00000+0 0  9993
2 40938  49.1745 258.4175 0066282 193.2835 168.3012  1.00252524 39669
SKY MUSTER 1 (NBN1A)    
1 40940U 15054A   26199.29372786  .00000000  00000+0  00000+0 0  9991
2 40940   0.0133  36.1510 0001613  79.0792  66.8638  1.00270248 39572
ARSAT 2                 
1 40941U 15054B   26199.24987432 -.00000233  00000+0  00000+0 0  9996
2 40941   0.0549 268.8109 0002096 196.9071 199.2800  1.00272710 39610
MORELOS 3               
1 40946U 15056A   26199.21572319 -.00000052  00000+0  00000+0 0  9993
2 40946   3.2127  15.8541 0000503 148.4889  96.2462  1.00270873 39597
APSTAR-9                
1 40982U 15059A   26199.29407453 -.00000274  00000+0  00000+0 0  9996
2 40982   0.0315  56.8562 0003151 128.8279 358.2939  1.00271112 39436
TURKSAT 4B              
1 40984U 15060A   26199.20452154  .00000107  00000+0  00000+0 0  9993
2 40984   0.0348 247.0083 0002118 220.5372 312.0804  1.00268904 39403
ZHONGXING-2C            
1 41021U 15063A   26199.00124466 -.00000332  00000+0  00000+0 0  9990
2 41021   0.3515  88.4951 0008206 100.5421 210.6666  1.00270499 39289
GSAT-15                 
1 41028U 15065A   26199.10878075 -.00000266  00000+0  00000+0 0  9998
2 41028   0.1100 263.8197 0003500 175.3678 349.3908  1.00272429 39106
BADR-7 (ARABSAT-6B)     
1 41029U 15065B   26199.27102110  .00000000  00000+0  00000+0 0  9992
2 41029   0.0130 223.1902 0004634 340.4349 216.0182  1.00268534 39073
LAOSAT 1                
1 41034U 15067A   26199.13308580  .00000000  00000+0  00000+0 0  9994
2 41034   0.0130 258.9815 0002835 166.8135  46.5589  1.00271647 39179
