OBJECT_NAME,OBJECT_ID,EPOCH,MEAN_MOTION,ECCENTRICITY,INCLINATION,RA_OF_ASC_NODE,ARG_OF_PERICENTER,MEAN_ANOMALY,EPHEMERIS_TYPE,CLASSIFICATION_TYPE,NORAD_CAT_ID,ELEMENT_SET_NO,REV_AT_EPOCH,BSTAR,MEAN_MOTION_DOT,MEAN_MOTION_DDOT
ASTRA 2G,2014-089A,2026-07-18T06:30:53.662752,1.00270054,.00045348,0.0565,34.4014,42.0007,345.5685,0,U,40364,999,4227,0,.142E-5,0
FENGYUN 2G,2014-090A,2026-07-18T00:52:21.806400,1.00279664,.00041007,5.7151,72.4430,174.1789,161.7141,0,U,40367,999,4230,0,-.313E-5,0
MUOS-3,2015-002A,2026-07-18T05:18:38.555712,1.00273405,.00537783,4.5787,43.6351,177.0104,139.5233,0,U,40374,999,4189,0,-.138E-5,0
INMARSAT 5-F2,2015-005A,2026-07-18T06:07:10.934688,1.00274943,.00008021,0.0199,53.0817,63.3717,216.4019,0,U,40384,999,4130,0,-.293E-5,0
ABS-3A,2015-010A,2026-07-17T23:52:14.607264,1.00272866,.00015989,0.0113,47.8692,36.0967,206.9326,0,U,40424,999,4168,0,-.35E-6,0
EUTELSAT 115 WEST B,2015-010B,2026-07-18T05:10:38.483616,1.00272514,.00002834,0.0037,119.7521,347.3212,151.7004,0,U,40425,999,4169,0,-.33E-6,0
EXPRESS-AM7,2015-012A,2026-07-18T06:34:15.839616,1.00272163,.0002859,0.0143,73.6481,49.4224,311.5450,0,U,40505,999,4131,0,.143E-5,0
BEIDOU-3S IGSO-1S,2015-019A,2026-07-02T19:12:21.705408,1.00680073,.00768606,49.1798,295.2769,219.1125,144.2493,0,U,40549,999,4123,0,-.19E-5,0
THOR 7,2015-022A,2026-07-18T06:22:46.939584,1.00274056,.0002345,0.0427,248.5313,228.6036,273.9909,0,U,40613,999,4112,0,-.16E-6,0
TURKMENALEM52E/MONACOSAT,2015-023A,2026-07-18T04:55:08.101632,1.00272699,.00027474,0.0390,86.1652,37.3215,298.3095,0,U,40617,999,4115,0,.96E-6,0
DIRECTV 15,2015-026A,2026-07-18T05:37:31.543968,1.00272070,.00001743,0.0233,79.8482,339.5184,218.1648,0,U,40663,999,4077,0,-.111E-5,0
SKY MEXICO-1,2015-026B,2026-07-18T06:00:26.580960,1.00272863,.00023727,0.0154,70.9192,61.8295,174.6169,0,U,40664,999,4076,0,-.242E-5,0
METEOSAT-11 (MSG-4),2015-034A,2026-07-18T06:25:31.676736,1.00272819,.00020923,3.2763,70.9096,354.8615,335.9412,0,U,40732,999,752,0,.53E-6,0
STAR ONE C4,2015-034B,2026-07-17T23:12:22.276800,1.00273418,.00016332,0.0275,337.7600,102.1763,133.9103,0,U,40733,999,4032,0,-.274E-5,0
WGS F7 (USA 263),2015-036A,2026-07-17T19:14:16.022112,1.00272892,.00002192,0.0152,48.5137,118.8406,231.8241,0,U,40746,999,4017,0,.9E-7,0
INTELSAT 34 (IS-34),2015-039A,2026-07-18T04:24:26.044128,1.00273425,.00004441,0.0104,22.8671,356.7138,287.0201,0,U,40874,999,3994,0,-.294E-5,0
EUTELSAT 8 WEST B,2015-039B,2026-07-18T06:20:39.643872,1.00271362,.0003812,0.0632,354.8967,117.0079,271.3325,0,U,40875,999,3996,0,-.74E-6,0
GSAT-6,2015-041A,2026-07-17T23:55:48.112896,1.00272792,.00029687,1.9958,82.2052,31.5815,263.4827,0,U,40880,999,3990,0,-.17E-5,0
INMARSAT 5-F3,2015-042A,2026-07-17T19:15:30.903264,1.00273047,.00004828,0.0188,48.3245,115.9868,239.7662,0,U,40882,999,3987,0,.41E-6,0
MUOS-4,2015-044A,2026-07-18T03:00:38.789280,1.00271611,.00565106,4.3871,42.4129,3.5983,10.0614,0,U,40887,999,3987,0,-.102E-5,0
TJS-1,2015-046A,2026-07-18T05:24:27.788832,1.00271383,.00051425,0.4016,84.7589,20.1916,67.2200,0,U,40892,999,3988,0,-.164E-5,0
EXPRESS-AM8,2015-048A,2026-07-18T06:18:54.811296,1.00271575,.00001856,0.0161,358.9118,30.0131,347.8592,0,U,40895,999,3965,0,-.12E-5,0
BEIDOU-3S IGSO-2S,2015-053A,2026-07-17T15:25:26.719968,1.00252524,.0066282,49.1745,258.4175,193.2835,168.3012,0,U,40938,999,3966,0,-.104E-5,0
SKY MUSTER 1 (NBN1A),2015-054A,2026-07-18T07:02:58.087104,1.00270248,.00016138,0.0133,36.1510,79.0792,66.8638,0,U,40940,999,3957,0,0,0
ARSAT 2,2015-054B,2026-07-18T05:59:49.141248,1.00272710,.00020965,0.0549,268.8109,196.9071,199.2800,0,U,40941,999,3961,0,-.233E-5,0
MORELOS 3,2015-056A,2026-07-18T05:10:38.483616,1.00270873,.00005034,3.2127,15.8541,148.4889,96.2462,0,U,40946,999,3959,0,-.52E-6,0
APSTAR-9,2015-059A,2026-07-18T07:03:28.039392,1.00271112,.0003151,0.0315,56.8562,128.8279,358.2939,0,U,40982,999,3943,0,-.274E-5,0
TURKSAT 4B,2015-060A,2026-07-18T04:54:30.661056,1.00268904,.0002118,0.0348,247.0083,220.5372,312.0804,0,U,40984,999,3940,0,.107E-5,0
ZHONGXING-2C,2015-063A,2026-07-18T00:01:47.538624,1.00270499,.00082064,0.3515,88.4951,100.5421,210.6666,0,U,41021,999,3928,0,-.332E-5,0
GSAT-15,2015-065A,2026-07-18T02:36:38.656800,1.00272429,.00035001,0.1100,263.8197,175.3678,349.3908,0,U,41028,999,3910,0,-.266E-5,0
BADR-7 (ARABSAT-6B),2015-065B,2026-07-18T06:30:16.223040,1.00268534,.00046347,0.0130,223.1902,340.4349,216.0182,0,U,41029,999,3907,0,0,0
LAOSAT 1,2015-067A,2026-07-18T03:11:38.613120,1.00271647,.00028357,0.0130,258.9815,166.8135,46.5589,0,U,41034,999,3917,0,0,0
